NAYIF-1 (EO-88)         
1 42017U 17008BX  20071.86861927  .00001237  00000-0  50580-4 0  9992
2 42017  97.3702 140.8219 0004883 318.3257  41.7609 15.26211119170667
MAX VALIER SAT          
1 42778U 17036P   20071.67917670  .00000744  00000-0  35080-4 0  9993
2 42778  97.3184 127.9600 0012408  14.6929 345.4665 15.22441442150854
RADFXSAT (FOX-1B)       
1 43017U 17073E   20071.75650591  .00000795  00000-0  67061-4 0  9996
2 43017  97.7261 347.7477 0257677   8.9814 351.5878 14.78830762124721
FOX-1D (AO-92)          
1 43137U 18004AC  20072.17973385  .00000780  00000-0  35216-4 0  9991
2 43137  97.4552 143.9665 0010256  45.5438 314.6636 15.23929898120221
ES'HAIL 2               
1 43700U 18090A   20072.07781900  .00000126  00000-0  00000+0 0  9993
2 43700   0.0109 215.3386 0002424 166.0700 202.5792  1.00272184  4978
FOX-1CLIFF (AO-95)      
1 43770U 18099N   20071.71947886 -.00000090  00000-0 -30110-5 0  9999
2 43770  97.7149 144.7656 0015213 158.4392 201.7473 14.94923802 69312
ITASAT 1                
1 43786U 18099AE  20072.14037050  .00000503  00000-0  50854-4 0  9990
2 43786  97.7162 145.5291 0016096 151.2737 208.9374 14.95271768 69397
JY1SAT (JO-97)          
1 43803U 18099AX  20072.16597252  .00000203  00000-0  23531-4 0  9996
2 43803  97.7125 145.3976 0015966 151.2486 208.9618 14.95438731 69396
PSAT2 (NO-104)          
1 44354U 19036R   20072.02065897  .00009313  00000-0  13754-3 0  9996
2 44354  28.5312 299.6714 0372100 351.8065   7.6575 15.01458537 39148
BRICSAT2 (NO-103)       
1 44355U 19036S   20071.33326586  .00015743  00000-0  22862-3 0  9999
2 44355  28.5312 299.9482 0357838 351.3773   8.0794 15.05019065 39080
JAISAT-1                
1 44419U 19038F   20071.85378681  .00000768  00000-0  47449-4 0  9992
2 44419  97.5271  34.6757 0023301 105.7688 254.6114 15.12610046 37842
DUCHIFAT-3              
1 44854U 19089C   20072.04455326  .00000319  00000-0  32324-4 0  9993
2 44854  36.9700 313.9903 0009060 345.2988  14.7493 14.98991121 13674
HUSKYSAT-1              
1 45119U 19071J   20071.31334543  .00001093  00000-0  45137-4 0  9991
2 45119  51.6435 117.4261 0012861  61.4082 298.8192 15.33206508  6061
